SENTINEL-5P             
1 42969U 17064A   26204.36112714  .00000031  00000+0  35683-4 0  9999
2 42969  98.7929 146.2368 0001206  92.3775 267.7539 14.19524290454692
