{"fetched_at":"2026-07-24T07:06:49.459Z","source":"https://celestrak.org/NORAD/elements/gp.php?NAME=SENTINEL&FORMAT=JSON","constellation":"sentinel-5p","records":[{"OBJECT_NAME":"SENTINEL-5P","OBJECT_ID":"2017-064A","EPOCH":"2026-07-23T08:40:01.384032","CLASSIFICATION_TYPE":"U","MEAN_MOTION":14.1952429,"ECCENTRICITY":0.0001206,"INCLINATION":98.7929,"RA_OF_ASC_NODE":146.2368,"ARG_OF_PERICENTER":92.3775,"MEAN_ANOMALY":267.7539,"EPHEMERIS_TYPE":0,"NORAD_CAT_ID":42969,"ELEMENT_SET_NO":999,"REV_AT_EPOCH":45469,"BSTAR":0.000035683,"MEAN_MOTION_DOT":3.1e-7,"MEAN_MOTION_DDOT":0}]}
